{
  "links" : {
    "next" : "https://api.nasa.gov/neo/rest/v1/feed?start_date=2016-08-23&end_date=2016-08-23&detailed=true&api_key=t0TVs3DtDT2H8Oy2Zy8m2eVrNsAVKAexjcZXUckd",
    "prev" : "https://api.nasa.gov/neo/rest/v1/feed?start_date=2016-08-21&end_date=2016-08-21&detailed=true&api_key=t0TVs3DtDT2H8Oy2Zy8m2eVrNsAVKAexjcZXUckd",
    "self" : "https://api.nasa.gov/neo/rest/v1/feed?start_date=2016-08-22&end_date=2016-08-22&detailed=true&api_key=t0TVs3DtDT2H8Oy2Zy8m2eVrNsAVKAexjcZXUckd"
  },
  "element_count" : 2,
  "near_earth_objects" : {
    "2016-08-22" : [ {
      "links" : {
        "self" : "https://api.nasa.gov/neo/rest/v1/neo/3759277?api_key=t0TVs3DtDT2H8Oy2Zy8m2eVrNsAVKAexjcZXUckd"
      },
      "neo_reference_id" : "3759277",
      "name" : "(2016 RU19)",
      "nasa_jpl_url" : "http://ssd.jpl.nasa.gov/sbdb.cgi?sstr=3759277",
      "absolute_magnitude_h" : 23.4,
      "estimated_diameter" : {
        "kilometers" : {
          "estimated_diameter_min" : 0.0555334912,
          "estimated_diameter_max" : 0.1241766613
        },
        "meters" : {
          "estimated_diameter_min" : 55.5334911581,
          "estimated_diameter_max" : 124.1766612574
        },
        "miles" : {
          "estimated_diameter_min" : 0.0345069009,
          "estimated_diameter_max" : 0.0771597762
        },
        "feet" : {
          "estimated_diameter_min" : 182.1964991311,
          "estimated_diameter_max" : 407.4037573197
        }
      },
      "is_potentially_hazardous_asteroid" : false,
      "close_approach_data" : [ {
        "close_approach_date" : "2016-08-22",
        "epoch_date_close_approach" : 1471849200000,
        "relative_velocity" : {
          "kilometers_per_second" : "18.8159688503",
          "kilometers_per_hour" : "67737.4878612488",
          "miles_per_hour" : "42089.440721341"
        },
        "miss_distance" : {
          "astronomical" : "0.1124246138",
          "lunar" : "43.7331733704",
          "kilometers" : "16818482",
          "miles" : "10450521"
        },
        "orbiting_body" : "Earth"
      } ],
      "orbital_data" : {
        "orbit_id" : "2",
        "orbit_determination_date" : "2017-04-06 08:24:03",
        "orbit_uncertainty" : "9",
        "minimum_orbit_intersection" : ".0445335",
        "jupiter_tisserand_invariant" : "4.061",
        "epoch_osculation" : "2457638.5",
        "eccentricity" : ".6708688231760543",
        "semi_major_axis" : "1.605920207037568",
        "inclination" : "5.076666006996263",
        "ascending_node_longitude" : "104.5775101720565",
        "orbital_period" : "743.3346388224138",
        "perihelion_distance" : ".5285584076276291",
        "perihelion_argument" : "129.7291657584679",
        "aphelion_distance" : "2.683282006447506",
        "perihelion_time" : "2457573.000562454836",
        "mean_anomaly" : "31.72164498295681",
        "mean_motion" : ".4843040821699225",
        "equinox" : "J2000"
      }
    }, {
      "links" : {
        "self" : "https://api.nasa.gov/neo/rest/v1/neo/3753873?api_key=t0TVs3DtDT2H8Oy2Zy8m2eVrNsAVKAexjcZXUckd"
      },
      "neo_reference_id" : "3753873",
      "name" : "(2016 LZ10)",
      "nasa_jpl_url" : "http://ssd.jpl.nasa.gov/sbdb.cgi?sstr=3753873",
      "absolute_magnitude_h" : 20.0,
      "estimated_diameter" : {
        "kilometers" : {
          "estimated_diameter_min" : 0.2658,
          "estimated_diameter_max" : 0.5943468684
        },
        "meters" : {
          "estimated_diameter_min" : 265.8,
          "estimated_diameter_max" : 594.3468684194
        },
        "miles" : {
          "estimated_diameter_min" : 0.1651604118,
          "estimated_diameter_max" : 0.369309908
        },
        "feet" : {
          "estimated_diameter_min" : 872.047272,
          "estimated_diameter_max" : 1949.9569797852
        }
      },
      "is_potentially_hazardous_asteroid" : false,
      "close_approach_data" : [ {
        "close_approach_date" : "2016-08-22",
        "epoch_date_close_approach" : 1471849200000,
        "relative_velocity" : {
          "kilometers_per_second" : "6.0104494225",
          "kilometers_per_hour" : "21637.6179211046",
          "miles_per_hour" : "13444.7743132552"
        },
        "miss_distance" : {
          "astronomical" : "0.1792537909",
          "lunar" : "69.7297210693",
          "kilometers" : "26815986",
          "miles" : "16662681"
        },
        "orbiting_body" : "Earth"
      } ],
      "orbital_data" : {
        "orbit_id" : "91",
        "orbit_determination_date" : "2017-04-06 08:25:25",
        "orbit_uncertainty" : "4",
        "minimum_orbit_intersection" : ".151114",
        "jupiter_tisserand_invariant" : "3.492",
        "epoch_osculation" : "2458000.5",
        "eccentricity" : ".4853766054712176",
        "semi_major_axis" : "2.207752234250826",
        "inclination" : "4.724114177595143",
        "ascending_node_longitude" : "223.1159084872328",
        "orbital_period" : "1198.185132162258",
        "perihelion_distance" : "1.136160949068663",
        "perihelion_argument" : "97.87132687559382",
        "aphelion_distance" : "3.279343519432989",
        "perihelion_time" : "2457619.442339887501",
        "mean_anomaly" : "114.490452233322",
        "mean_motion" : ".3004544041957355",
        "equinox" : "J2000"
      }
    } ]
  }
}